{"fetched_at":"2026-07-18T17:29:42.532Z","source":"https://celestrak.org/NORAD/elements/gp.php?NAME=ASTROCAST&FORMAT=JSON","constellation":"astrocast","records":[{"OBJECT_NAME":"ASTROCAST 0.1","OBJECT_ID":"2018-099AS","EPOCH":"2026-07-18T07:14:18.261600","CLASSIFICATION_TYPE":"U","MEAN_MOTION":15.51600246,"ECCENTRICITY":0.0005434,"INCLINATION":97.4365,"RA_OF_ASC_NODE":278.8162,"ARG_OF_PERICENTER":120.8414,"MEAN_ANOMALY":239.3374,"EPHEMERIS_TYPE":0,"NORAD_CAT_ID":43798,"ELEMENT_SET_NO":999,"REV_AT_EPOCH":41925,"BSTAR":0.00038256783,"MEAN_MOTION_DOT":0.00022635,"MEAN_MOTION_DDOT":0},{"OBJECT_NAME":"ASTROCAST-0402","OBJECT_ID":"2023-001DE","EPOCH":"2026-07-18T04:45:28.683360","CLASSIFICATION_TYPE":"U","MEAN_MOTION":15.29053271,"ECCENTRICITY":0.00065763,"INCLINATION":97.5582,"RA_OF_ASC_NODE":292.8715,"ARG_OF_PERICENTER":126.692,"MEAN_ANOMALY":233.4925,"EPHEMERIS_TYPE":0,"NORAD_CAT_ID":55109,"ELEMENT_SET_NO":999,"REV_AT_EPOCH":14927,"BSTAR":0.00024763675,"MEAN_MOTION_DOT":0.00006911,"MEAN_MOTION_DDOT":0},{"OBJECT_NAME":"ASTROCAST-0401","OBJECT_ID":"2023-001DF","EPOCH":"2026-07-17T16:34:59.872800","CLASSIFICATION_TYPE":"U","MEAN_MOTION":15.28600753,"ECCENTRICITY":0.00095362,"INCLINATION":97.5567,"RA_OF_ASC_NODE":292.1591,"ARG_OF_PERICENTER":101.4177,"MEAN_ANOMALY":258.8134,"EPHEMERIS_TYPE":0,"NORAD_CAT_ID":55110,"ELEMENT_SET_NO":999,"REV_AT_EPOCH":19586,"BSTAR":0.00034707033,"MEAN_MOTION_DOT":0.00009593,"MEAN_MOTION_DDOT":0},{"OBJECT_NAME":"ASTROCAST-0403","OBJECT_ID":"2023-001DG","EPOCH":"2026-07-18T05:22:16.292352","CLASSIFICATION_TYPE":"U","MEAN_MOTION":15.3243927,"ECCENTRICITY":0.00049962,"INCLINATION":97.5622,"RA_OF_ASC_NODE":294.0406,"ARG_OF_PERICENTER":201.304,"MEAN_ANOMALY":158.7994,"EPHEMERIS_TYPE":0,"NORAD_CAT_ID":55111,"ELEMENT_SET_NO":999,"REV_AT_EPOCH":14931,"BSTAR":0.00040639045,"MEAN_MOTION_DOT":0.0001266,"MEAN_MOTION_DDOT":0},{"OBJECT_NAME":"ASTROCAST-0404","OBJECT_ID":"2023-001DH","EPOCH":"2026-07-17T12:17:43.324800","CLASSIFICATION_TYPE":"U","MEAN_MOTION":15.28844416,"ECCENTRICITY":0.0005286,"INCLINATION":97.5671,"RA_OF_ASC_NODE":293.1097,"ARG_OF_PERICENTER":232.9132,"MEAN_ANOMALY":127.1624,"EPHEMERIS_TYPE":0,"NORAD_CAT_ID":55112,"ELEMENT_SET_NO":999,"REV_AT_EPOCH":14916,"BSTAR":0.00015147,"MEAN_MOTION_DOT":0.00004168,"MEAN_MOTION_DDOT":0}]}
