ASTROCAST 0.1           
1 43798U 18099AS  26199.30160025  .00022635  00000+0  38257-3 0  9997
2 43798  97.4365 278.8162 0005434 120.8414 239.3374 15.51600246419259
ASTROCAST-0402          
1 55109U 23001DE  26199.19824865  .00006911  00000+0  24764-3 0  9998
2 55109  97.5582 292.8715 0006576 126.6920 233.4925 15.29053271149278
ASTROCAST-0401          
1 55110U 23001DF  26198.69097075  .00009593  00000+0  34707-3 0  9996
2 55110  97.5567 292.1591 0009536 101.4177 258.8134 15.28600753195863
ASTROCAST-0403          
1 55111U 23001DG  26199.22379968  .00012660  00000+0  40639-3 0  9991
2 55111  97.5622 294.0406 0004996 201.3040 158.7994 15.32439270149316
ASTROCAST-0404          
1 55112U 23001DH  26198.51230700  .00004168  00000+0  15147-3 0  9993
2 55112  97.5671 293.1097 0005286 232.9132 127.1624 15.28844416149162
